[{"OBJECT_NAME":"LATINSAT B","OBJECT_ID":"2002-058B","EPOCH":"2026-03-09T16:34:18.291936","MEAN_MOTION":14.76864114,"ECCENTRICITY":0.0085493,"INCLINATION":64.5543,"RA_OF_ASC_NODE":195.5711,"ARG_OF_PERICENTER":289.4538,"MEAN_ANOMALY":69.7343,"EPHEMERIS_TYPE":0,"CLASSIFICATION_TYPE":"U","NORAD_CAT_ID":27606,"ELEMENT_SET_NO":999,"REV_AT_EPOCH":24740,"BSTAR":0.00017955575,"MEAN_MOTION_DOT":1.192e-5,"MEAN_MOTION_DDOT":0},{"OBJECT_NAME":"DELTA 1 DEB","OBJECT_ID":"1972-058JR","EPOCH":"2026-03-07T09:10:14.097504","MEAN_MOTION":14.67437761,"ECCENTRICITY":0.0037015,"INCLINATION":97.8747,"RA_OF_ASC_NODE":35.7145,"ARG_OF_PERICENTER":353.1485,"MEAN_ANOMALY":6.921,"EPHEMERIS_TYPE":0,"CLASSIFICATION_TYPE":"U","NORAD_CAT_ID":42558,"ELEMENT_SET_NO":999,"REV_AT_EPOCH":65556,"BSTAR":0.00045862437,"MEAN_MOTION_DOT":2.574e-5,"MEAN_MOTION_DDOT":0}]
